[{"OBJECT_NAME":"FLOCK 4BE-34","OBJECT_ID":"2024-149AD","EPOCH":"2026-03-09T21:53:21.305760","MEAN_MOTION":15.37994168,"ECCENTRICITY":0.00024574,"INCLINATION":97.3814,"RA_OF_ASC_NODE":152.5107,"ARG_OF_PERICENTER":258.491,"MEAN_ANOMALY":101.6059,"EPHEMERIS_TYPE":0,"CLASSIFICATION_TYPE":"U","NORAD_CAT_ID":60495,"ELEMENT_SET_NO":999,"REV_AT_EPOCH":8705,"BSTAR":0.00048986124,"MEAN_MOTION_DOT":0.00018248,"MEAN_MOTION_DDOT":0},{"OBJECT_NAME":"COSMOS 2251 DEB","OBJECT_ID":"1993-036ACD","EPOCH":"2026-03-09T07:40:43.610016","MEAN_MOTION":15.34387517,"ECCENTRICITY":0.00153475,"INCLINATION":74.0247,"RA_OF_ASC_NODE":157.5248,"ARG_OF_PERICENTER":323.6748,"MEAN_ANOMALY":36.3413,"EPHEMERIS_TYPE":0,"CLASSIFICATION_TYPE":"U","NORAD_CAT_ID":34859,"ELEMENT_SET_NO":999,"REV_AT_EPOCH":89676,"BSTAR":0.0069097076,"MEAN_MOTION_DOT":0.00238319,"MEAN_MOTION_DDOT":0}]
